[{"OBJECT_NAME":"TK-2","OBJECT_ID":"2022-031A","EPOCH":"2026-03-09T22:51:17.143200","MEAN_MOTION":15.02943491,"ECCENTRICITY":0.00164117,"INCLINATION":97.8366,"RA_OF_ASC_NODE":263.9365,"ARG_OF_PERICENTER":100.3205,"MEAN_ANOMALY":259.9871,"EPHEMERIS_TYPE":0,"CLASSIFICATION_TYPE":"U","NORAD_CAT_ID":52150,"ELEMENT_SET_NO":999,"REV_AT_EPOCH":21555,"BSTAR":0.00040164474,"MEAN_MOTION_DOT":5.349e-5,"MEAN_MOTION_DDOT":0},{"OBJECT_NAME":"STARLINK-32817","OBJECT_ID":"2025-037C","EPOCH":"2026-03-09T22:51:34.589952","MEAN_MOTION":14.98326829,"ECCENTRICITY":0.00027671,"INCLINATION":70.0031,"RA_OF_ASC_NODE":353.7002,"ARG_OF_PERICENTER":263.1614,"MEAN_ANOMALY":96.923,"EPHEMERIS_TYPE":0,"CLASSIFICATION_TYPE":"U","NORAD_CAT_ID":63079,"ELEMENT_SET_NO":999,"REV_AT_EPOCH":5863,"BSTAR":0.00023347418,"MEAN_MOTION_DOT":2.694e-5,"MEAN_MOTION_DDOT":0}]
